[{"OBJECT_NAME":"ONEWEB-0446","OBJECT_ID":"2022-012U","EPOCH":"2025-08-03T05:14:01.658400","MEAN_MOTION":13.10370861,"ECCENTRICITY":0.0001568,"INCLINATION":87.8792,"RA_OF_ASC_NODE":99.7118,"ARG_OF_PERICENTER":75.5854,"MEAN_ANOMALY":284.5447,"EPHEMERIS_TYPE":0,"CLASSIFICATION_TYPE":"U","NORAD_CAT_ID":51640,"ELEMENT_SET_NO":999,"REV_AT_EPOCH":16768,"BSTAR":0.001332,"MEAN_MOTION_DOT":4.78e-6,"MEAN_MOTION_DDOT":0},{"OBJECT_NAME":"ONEWEB-0448","OBJECT_ID":"2022-012V","EPOCH":"2025-08-03T14:30:57.210048","MEAN_MOTION":13.1037133,"ECCENTRICITY":0.0001816,"INCLINATION":87.8796,"RA_OF_ASC_NODE":99.6335,"ARG_OF_PERICENTER":82.5356,"MEAN_ANOMALY":277.5977,"EPHEMERIS_TYPE":0,"CLASSIFICATION_TYPE":"U","NORAD_CAT_ID":51641,"ELEMENT_SET_NO":999,"REV_AT_EPOCH":16770,"BSTAR":0.00075525,"MEAN_MOTION_DOT":2.76e-6,"MEAN_MOTION_DDOT":0},{"OBJECT_NAME":"ONEWEB-0449","OBJECT_ID":"2022-012W","EPOCH":"2025-08-03T05:28:21.470592","MEAN_MOTION":13.10369767,"ECCENTRICITY":0.0001857,"INCLINATION":87.879,"RA_OF_ASC_NODE":99.6814,"ARG_OF_PERICENTER":93.2988,"MEAN_ANOMALY":266.8352,"EPHEMERIS_TYPE":0,"CLASSIFICATION_TYPE":"U","NORAD_CAT_ID":51642,"ELEMENT_SET_NO":999,"REV_AT_EPOCH":16766,"BSTAR":-0.00020794,"MEAN_MOTION_DOT":-6.0e-7,"MEAN_MOTION_DDOT":0},{"OBJECT_NAME":"ONEWEB-0451","OBJECT_ID":"2022-012X","EPOCH":"2025-08-03T09:58:59.108160","MEAN_MOTION":13.17648403,"ECCENTRICITY":0.0001773,"INCLINATION":87.9029,"RA_OF_ASC_NODE":69.0737,"ARG_OF_PERICENTER":89.1057,"MEAN_ANOMALY":271.0277,"EPHEMERIS_TYPE":0,"CLASSIFICATION_TYPE":"U","NORAD_CAT_ID":51643,"ELEMENT_SET_NO":999,"REV_AT_EPOCH":17181,"BSTAR":0.0002987,"MEAN_MOTION_DOT":1.29e-6,"MEAN_MOTION_DDOT":0},{"OBJECT_NAME":"ONEWEB-0452","OBJECT_ID":"2022-012Y","EPOCH":"2025-08-03T09:56:33.519840","MEAN_MOTION":13.17647703,"ECCENTRICITY":0.0001961,"INCLINATION":87.903,"RA_OF_ASC_NODE":69.1385,"ARG_OF_PERICENTER":91.5756,"MEAN_ANOMALY":268.56,"EPHEMERIS_TYPE":0,"CLASSIFICATION_TYPE":"U","NORAD_CAT_ID":51644,"ELEMENT_SET_NO":999,"REV_AT_EPOCH":17182,"BSTAR":3.0254e-5,"MEAN_MOTION_DOT":2.5e-7,"MEAN_MOTION_DDOT":0},{"OBJECT_NAME":"ONEWEB-0456","OBJECT_ID":"2022-012AA","EPOCH":"2025-08-03T03:52:43.728672","MEAN_MOTION":13.1037031,"ECCENTRICITY":0.0001938,"INCLINATION":87.8794,"RA_OF_ASC_NODE":99.6525,"ARG_OF_PERICENTER":73.872,"MEAN_ANOMALY":286.262,"EPHEMERIS_TYPE":0,"CLASSIFICATION_TYPE":"U","NORAD_CAT_ID":51646,"ELEMENT_SET_NO":999,"REV_AT_EPOCH":16769,"BSTAR":-0.0014156,"MEAN_MOTION_DOT":-4.81e-6,"MEAN_MOTION_DDOT":0},{"OBJECT_NAME":"ONEWEB-0457","OBJECT_ID":"2022-012AB","EPOCH":"2025-08-03T10:39:07.050240","MEAN_MOTION":13.10371888,"ECCENTRICITY":0.0001536,"INCLINATION":87.8794,"RA_OF_ASC_NODE":99.6546,"ARG_OF_PERICENTER":88.2193,"MEAN_ANOMALY":271.911,"EPHEMERIS_TYPE":0,"CLASSIFICATION_TYPE":"U","NORAD_CAT_ID":51647,"ELEMENT_SET_NO":999,"REV_AT_EPOCH":16773,"BSTAR":0.0016865,"MEAN_MOTION_DOT":6.01e-6,"MEAN_MOTION_DDOT":0},{"OBJECT_NAME":"ONEWEB-0458","OBJECT_ID":"2022-012AC","EPOCH":"2025-08-03T11:10:09.397920","MEAN_MOTION":13.10369379,"ECCENTRICITY":0.0002458,"INCLINATION":87.8783,"RA_OF_ASC_NODE":99.6244,"ARG_OF_PERICENTER":69.7544,"MEAN_ANOMALY":290.3848,"EPHEMERIS_TYPE":0,"CLASSIFICATION_TYPE":"U","NORAD_CAT_ID":51648,"ELEMENT_SET_NO":999,"REV_AT_EPOCH":16769,"BSTAR":-0.0012771,"MEAN_MOTION_DOT":-4.33e-6,"MEAN_MOTION_DDOT":0},{"OBJECT_NAME":"ONEWEB-0461","OBJECT_ID":"2022-012AD","EPOCH":"2025-08-03T14:06:50.513760","MEAN_MOTION":13.1765033,"ECCENTRICITY":0.0001657,"INCLINATION":87.9028,"RA_OF_ASC_NODE":69.0532,"ARG_OF_PERICENTER":83.9193,"MEAN_ANOMALY":276.2127,"EPHEMERIS_TYPE":0,"CLASSIFICATION_TYPE":"U","NORAD_CAT_ID":51649,"ELEMENT_SET_NO":999,"REV_AT_EPOCH":17206,"BSTAR":0.00013164,"MEAN_MOTION_DOT":6.4e-7,"MEAN_MOTION_DDOT":0},{"OBJECT_NAME":"ONEWEB-0463","OBJECT_ID":"2022-012AE","EPOCH":"2025-08-03T11:50:46.051584","MEAN_MOTION":13.17647746,"ECCENTRICITY":0.0001819,"INCLINATION":87.9024,"RA_OF_ASC_NODE":69.1362,"ARG_OF_PERICENTER":86.2125,"MEAN_ANOMALY":273.9214,"EPHEMERIS_TYPE":0,"CLASSIFICATION_TYPE":"U","NORAD_CAT_ID":51650,"ELEMENT_SET_NO":999,"REV_AT_EPOCH":17183,"BSTAR":-2.7733e-5,"MEAN_MOTION_DOT":2.0e-8,"MEAN_MOTION_DDOT":0},{"OBJECT_NAME":"ONEWEB-0464","OBJECT_ID":"2022-012AF","EPOCH":"2025-08-03T11:05:23.025120","MEAN_MOTION":13.10369733,"ECCENTRICITY":0.0002037,"INCLINATION":87.8798,"RA_OF_ASC_NODE":99.6603,"ARG_OF_PERICENTER":72.2367,"MEAN_ANOMALY":287.8982,"EPHEMERIS_TYPE":0,"CLASSIFICATION_TYPE":"U","NORAD_CAT_ID":51651,"ELEMENT_SET_NO":999,"REV_AT_EPOCH":16771,"BSTAR":-0.00080481,"MEAN_MOTION_DOT":-2.68e-6,"MEAN_MOTION_DDOT":0},{"OBJECT_NAME":"ONEWEB-0468","OBJECT_ID":"2022-012AG","EPOCH":"2025-08-03T05:45:03.770208","MEAN_MOTION":13.10370298,"ECCENTRICITY":0.0001875,"INCLINATION":87.8801,"RA_OF_ASC_NODE":99.6964,"ARG_OF_PERICENTER":78.2059,"MEAN_ANOMALY":281.9279,"EPHEMERIS_TYPE":0,"CLASSIFICATION_TYPE":"U","NORAD_CAT_ID":51652,"ELEMENT_SET_NO":999,"REV_AT_EPOCH":16766,"BSTAR":-0.0015375,"MEAN_MOTION_DOT":-5.24e-6,"MEAN_MOTION_DDOT":0},{"OBJECT_NAME":"ONEWEB-0473","OBJECT_ID":"2022-012AH","EPOCH":"2025-08-03T05:23:34.805760","MEAN_MOTION":13.10369799,"ECCENTRICITY":0.0001943,"INCLINATION":87.8795,"RA_OF_ASC_NODE":99.7028,"ARG_OF_PERICENTER":79.9673,"MEAN_ANOMALY":280.1673,"EPHEMERIS_TYPE":0,"CLASSIFICATION_TYPE":"U","NORAD_CAT_ID":51653,"ELEMENT_SET_NO":999,"REV_AT_EPOCH":16766,"BSTAR":0.00034326,"MEAN_MOTION_DOT":1.32e-6,"MEAN_MOTION_DDOT":0},{"OBJECT_NAME":"ONEWEB-0474","OBJECT_ID":"2022-012AJ","EPOCH":"2025-08-03T10:41:30.398208","MEAN_MOTION":13.10371386,"ECCENTRICITY":0.0001981,"INCLINATION":87.8789,"RA_OF_ASC_NODE":99.6197,"ARG_OF_PERICENTER":77.933,"MEAN_ANOMALY":282.2019,"EPHEMERIS_TYPE":0,"CLASSIFICATION_TYPE":"U","NORAD_CAT_ID":51654,"ELEMENT_SET_NO":999,"REV_AT_EPOCH":16768,"BSTAR":0.0016217,"MEAN_MOTION_DOT":5.79e-6,"MEAN_MOTION_DDOT":0},{"OBJECT_NAME":"ONEWEB-0475","OBJECT_ID":"2022-012AK","EPOCH":"2025-08-03T12:07:47.379072","MEAN_MOTION":13.17649827,"ECCENTRICITY":0.0002607,"INCLINATION":87.9028,"RA_OF_ASC_NODE":69.1152,"ARG_OF_PERICENTER":83.4349,"MEAN_ANOMALY":276.7079,"EPHEMERIS_TYPE":0,"CLASSIFICATION_TYPE":"U","NORAD_CAT_ID":51655,"ELEMENT_SET_NO":999,"REV_AT_EPOCH":17185,"BSTAR":-8.8648e-5,"MEAN_MOTION_DOT":-2.2e-7,"MEAN_MOTION_DDOT":0},{"OBJECT_NAME":"ONEWEB-0490","OBJECT_ID":"2022-138A","EPOCH":"2025-08-03T11:05:34.631232","MEAN_MOTION":13.19724011,"ECCENTRICITY":0.0001943,"INCLINATION":87.9238,"RA_OF_ASC_NODE":8.1082,"ARG_OF_PERICENTER":89.0188,"MEAN_ANOMALY":271.1167,"EPHEMERIS_TYPE":0,"CLASSIFICATION_TYPE":"U","NORAD_CAT_ID":54113,"ELEMENT_SET_NO":999,"REV_AT_EPOCH":13492,"BSTAR":0.00017969,"MEAN_MOTION_DOT":8.5e-7,"MEAN_MOTION_DDOT":0},{"OBJECT_NAME":"ONEWEB-0492","OBJECT_ID":"2022-138B","EPOCH":"2025-08-03T11:42:00.004320","MEAN_MOTION":13.19726605,"ECCENTRICITY":0.000182,"INCLINATION":87.9235,"RA_OF_ASC_NODE":8.1271,"ARG_OF_PERICENTER":90.4953,"MEAN_ANOMALY":269.6388,"EPHEMERIS_TYPE":0,"CLASSIFICATION_TYPE":"U","NORAD_CAT_ID":54114,"ELEMENT_SET_NO":999,"REV_AT_EPOCH":13493,"BSTAR":-0.00014754,"MEAN_MOTION_DOT":-4.6e-7,"MEAN_MOTION_DDOT":0}]
