ONEWEB-0446             
1 51640U 22012U   25215.21807475  .00000478  00000+0  13320-2 0  9991
2 51640  87.8792  99.7118 0001568  75.5854 284.5447 13.10370861167680
ONEWEB-0448             
1 51641U 22012V   25215.60482882  .00000276  00000+0  75525-3 0  9998
2 51641  87.8796  99.6335 0001816  82.5356 277.5977 13.10371330167701
ONEWEB-0449             
1 51642U 22012W   25215.22802628 -.00000060  00000+0 -20794-3 0  9992
2 51642  87.8790  99.6814 0001857  93.2988 266.8352 13.10369767167667
ONEWEB-0451             
1 51643U 22012X   25215.41596190  .00000129  00000+0  29870-3 0  9996
2 51643  87.9029  69.0737 0001773  89.1057 271.0277 13.17648403171817
ONEWEB-0452             
1 51644U 22012Y   25215.41427685  .00000025  00000+0  30254-4 0  9993
2 51644  87.9030  69.1385 0001961  91.5756 268.5600 13.17647703171826
ONEWEB-0456             
1 51646U 22012AA  25215.16161723 -.00000481  00000+0 -14156-2 0  9994
2 51646  87.8794  99.6525 0001938  73.8720 286.2620 13.10370310167695
ONEWEB-0457             
1 51647U 22012AB  25215.44383160  .00000601  00000+0  16865-2 0  9998
2 51647  87.8794  99.6546 0001536  88.2193 271.9110 13.10371888167738
ONEWEB-0458             
1 51648U 22012AC  25215.46538655 -.00000433  00000+0 -12771-2 0  9999
2 51648  87.8783  99.6244 0002458  69.7544 290.3848 13.10369379167690
ONEWEB-0461             
1 51649U 22012AD  25215.58808465  .00000064  00000+0  13164-3 0  9998
2 51649  87.9028  69.0532 0001657  83.9193 276.2127 13.17650330172060
ONEWEB-0463             
1 51650U 22012AE  25215.49358856  .00000002  00000+0 -27733-4 0  9995
2 51650  87.9024  69.1362 0001819  86.2125 273.9214 13.17647746171833
ONEWEB-0464             
1 51651U 22012AF  25215.46207205 -.00000268  00000+0 -80481-3 0  9997
2 51651  87.8798  99.6603 0002037  72.2367 287.8982 13.10369733167711
ONEWEB-0468             
1 51652U 22012AG  25215.23962697 -.00000524  00000+0 -15375-2 0  9990
2 51652  87.8801  99.6964 0001875  78.2059 281.9279 13.10370298167666
ONEWEB-0473             
1 51653U 22012AH  25215.22470840  .00000132  00000+0  34326-3 0  9995
2 51653  87.8795  99.7028 0001943  79.9673 280.1673 13.10369799167660
ONEWEB-0474             
1 51654U 22012AJ  25215.44549072  .00000579  00000+0  16217-2 0  9997
2 51654  87.8789  99.6197 0001981  77.9330 282.2019 13.10371386167684
ONEWEB-0475             
1 51655U 22012AK  25215.50540948 -.00000022  00000+0 -88648-4 0  9992
2 51655  87.9028  69.1152 0002607  83.4349 276.7079 13.17649827171856
ONEWEB-0490             
1 54113U 22138A   25215.46220638  .00000085  00000+0  17969-3 0  9993
2 54113  87.9238   8.1082 0001943  89.0188 271.1167 13.19724011134926
ONEWEB-0492             
1 54114U 22138B   25215.48750005 -.00000046  00000+0 -14754-3 0  9990
2 54114  87.9235   8.1271 0001820  90.4953 269.6388 13.19726605134933
